CCSDS_OMM_VERS = 2.0
CREATION_DATE  = 
ORIGINATOR     = 

OBJECT_NAME    = GUOWANG GROUP 20 OBJECT J
OBJECT_ID      = 2026-047J
CENTER_NAME    = EARTH
REF_FRAME      = TEME
TIME_SYSTEM    = UTC
MEAN_ELEMENT_THEORY = SGP/SGP4

EPOCH          = 2026-03-29T05:59:36.933792
MEAN_MOTION    = 13.93924120
ECCENTRICITY   = .00009825
INCLINATION    = 50.0061
RA_OF_ASC_NODE = 350.8887
ARG_OF_PERICENTER = 211.4979
MEAN_ANOMALY   = 148.5862

EPHEMERIS_TYPE = 0
CLASSIFICATION_TYPE = U
NORAD_CAT_ID   = 68137
ELEMENT_SET_NO = 999
REV_AT_EPOCH   = 231
BSTAR          = .19244539E-4
MEAN_MOTION_DOT = -.122E-5
MEAN_MOTION_DDOT = 0

CCSDS_OMM_VERS = 2.0
CREATION_DATE  = 
ORIGINATOR     = 

OBJECT_NAME    = CZ-8A R/B
OBJECT_ID      = 2026-047K
CENTER_NAME    = EARTH
REF_FRAME      = TEME
TIME_SYSTEM    = UTC
MEAN_ELEMENT_THEORY = SGP/SGP4

EPOCH          = 2026-03-31T14:56:49.380000
MEAN_MOTION    = 14.12232393
ECCENTRICITY   = .00447553
INCLINATION    = 49.9536
RA_OF_ASC_NODE = 339.9796
ARG_OF_PERICENTER = 213.6301
MEAN_ANOMALY   = 146.1764

EPHEMERIS_TYPE = 0
CLASSIFICATION_TYPE = U
NORAD_CAT_ID   = 68138
ELEMENT_SET_NO = 999
REV_AT_EPOCH   = 265
BSTAR          = .25129409E-4
MEAN_MOTION_DOT = -.107E-5
MEAN_MOTION_DDOT = 0

CCSDS_OMM_VERS = 2.0
CREATION_DATE  = 
ORIGINATOR     = 

OBJECT_NAME    = SHIYAN-30 03
OBJECT_ID      = 2026-048A
CENTER_NAME    = EARTH
REF_FRAME      = TEME
TIME_SYSTEM    = UTC
MEAN_ELEMENT_THEORY = SGP/SGP4

EPOCH          = 2026-03-31T10:58:36.901920
MEAN_MOTION    = 14.91743618
ECCENTRICITY   = .0002848
INCLINATION    = 35.0016
RA_OF_ASC_NODE = 13.6117
ARG_OF_PERICENTER = 22.3389
MEAN_ANOMALY   = 337.7439

EPHEMERIS_TYPE = 0
CLASSIFICATION_TYPE = U
NORAD_CAT_ID   = 68139
ELEMENT_SET_NO = 999
REV_AT_EPOCH   = 275
BSTAR          = .35764E-3
MEAN_MOTION_DOT = .3645E-4
MEAN_MOTION_DDOT = 0

CCSDS_OMM_VERS = 2.0
CREATION_DATE  = 
ORIGINATOR     = 

OBJECT_NAME    = SHIYAN-30 04
OBJECT_ID      = 2026-048B
CENTER_NAME    = EARTH
REF_FRAME      = TEME
TIME_SYSTEM    = UTC
MEAN_ELEMENT_THEORY = SGP/SGP4

EPOCH          = 2026-03-31T10:59:36.741696
MEAN_MOTION    = 14.91751464
ECCENTRICITY   = .0001353
INCLINATION    = 34.9930
RA_OF_ASC_NODE = 13.6116
ARG_OF_PERICENTER = 18.4637
MEAN_ANOMALY   = 341.6117

EPHEMERIS_TYPE = 0
CLASSIFICATION_TYPE = U
NORAD_CAT_ID   = 68140
ELEMENT_SET_NO = 999
REV_AT_EPOCH   = 275
BSTAR          = .34365E-3
MEAN_MOTION_DOT = .3502E-4
MEAN_MOTION_DDOT = 0

CCSDS_OMM_VERS = 2.0
CREATION_DATE  = 
ORIGINATOR     = 

OBJECT_NAME    = CZ-2D R/B
OBJECT_ID      = 2026-048C
CENTER_NAME    = EARTH
REF_FRAME      = TEME
TIME_SYSTEM    = UTC
MEAN_ELEMENT_THEORY = SGP/SGP4

EPOCH          = 2026-03-31T11:30:49.045248
MEAN_MOTION    = 14.95574643
ECCENTRICITY   = .00153287
INCLINATION    = 35.1311
RA_OF_ASC_NODE = 13.1939
ARG_OF_PERICENTER = 158.1770
MEAN_ANOMALY   = 201.9594

EPHEMERIS_TYPE = 0
CLASSIFICATION_TYPE = U
NORAD_CAT_ID   = 68141
ELEMENT_SET_NO = 999
REV_AT_EPOCH   = 276
BSTAR          = .21275616E-3
MEAN_MOTION_DOT = .2381E-4
MEAN_MOTION_DDOT = 0

CCSDS_OMM_VERS = 2.0
CREATION_DATE  = 
ORIGINATOR     = 

OBJECT_NAME    = STARLINK-36604
OBJECT_ID      = 2026-049A
CENTER_NAME    = EARTH
REF_FRAME      = TEME
TIME_SYSTEM    = UTC
MEAN_ELEMENT_THEORY = SGP/SGP4

EPOCH          = 2026-03-31T14:00:01.999872
MEAN_MOTION    = 15.75468192
ECCENTRICITY   = .00011371
INCLINATION    = 97.2836
RA_OF_ASC_NODE = 110.9235
ARG_OF_PERICENTER = 93.6359
MEAN_ANOMALY   = 342.3774

EPHEMERIS_TYPE = 0
CLASSIFICATION_TYPE = U
NORAD_CAT_ID   = 68142
ELEMENT_SET_NO = 999
REV_AT_EPOCH   = 415
BSTAR          = -.31066122E-2
MEAN_MOTION_DOT = -.445508E-2
MEAN_MOTION_DDOT = 0

CCSDS_OMM_VERS = 2.0
CREATION_DATE  = 
ORIGINATOR     = 

OBJECT_NAME    = STARLINK-36995
OBJECT_ID      = 2026-049B
CENTER_NAME    = EARTH
REF_FRAME      = TEME
TIME_SYSTEM    = UTC
MEAN_ELEMENT_THEORY = SGP/SGP4

EPOCH          = 2026-03-31T12:05:56.186592
MEAN_MOTION    = 15.80834052
ECCENTRICITY   = .00013811
INCLINATION    = 97.2832
RA_OF_ASC_NODE = 110.8461
ARG_OF_PERICENTER = 80.6438
MEAN_ANOMALY   = 279.4986

EPHEMERIS_TYPE = 0
CLASSIFICATION_TYPE = U
NORAD_CAT_ID   = 68143
ELEMENT_SET_NO = 999
REV_AT_EPOCH   = 285
BSTAR          = .10177138E-2
MEAN_MOTION_DOT = .199485E-2
MEAN_MOTION_DDOT = 0

CCSDS_OMM_VERS = 2.0
CREATION_DATE  = 
ORIGINATOR     = 

OBJECT_NAME    = STARLINK-37020
OBJECT_ID      = 2026-049C
CENTER_NAME    = EARTH
REF_FRAME      = TEME
TIME_SYSTEM    = UTC
MEAN_ELEMENT_THEORY = SGP/SGP4

EPOCH          = 2026-03-31T12:03:46.014624
MEAN_MOTION    = 15.80859262
ECCENTRICITY   = .00008933
INCLINATION    = 97.2830
RA_OF_ASC_NODE = 110.8484
ARG_OF_PERICENTER = 92.8459
MEAN_ANOMALY   = 267.2911

EPHEMERIS_TYPE = 0
CLASSIFICATION_TYPE = U
NORAD_CAT_ID   = 68144
ELEMENT_SET_NO = 999
REV_AT_EPOCH   = 285
BSTAR          = .1140109E-2
MEAN_MOTION_DOT = .224396E-2
MEAN_MOTION_DDOT = 0

CCSDS_OMM_VERS = 2.0
CREATION_DATE  = 
ORIGINATOR     = 

OBJECT_NAME    = STARLINK-36244
OBJECT_ID      = 2026-049D
CENTER_NAME    = EARTH
REF_FRAME      = TEME
TIME_SYSTEM    = UTC
MEAN_ELEMENT_THEORY = SGP/SGP4

EPOCH          = 2026-03-31T14:00:01.999872
MEAN_MOTION    = 15.75202877
ECCENTRICITY   = .00015288
INCLINATION    = 97.2846
RA_OF_ASC_NODE = 110.9012
ARG_OF_PERICENTER = 93.1958
MEAN_ANOMALY   = 290.9159

EPHEMERIS_TYPE = 0
CLASSIFICATION_TYPE = U
NORAD_CAT_ID   = 68145
ELEMENT_SET_NO = 999
REV_AT_EPOCH   = 415
BSTAR          = .13456303E-3
MEAN_MOTION_DOT = .2E-3
MEAN_MOTION_DDOT = 0

CCSDS_OMM_VERS = 2.0
CREATION_DATE  = 
ORIGINATOR     = 

OBJECT_NAME    = STARLINK-36980
OBJECT_ID      = 2026-049E
CENTER_NAME    = EARTH
REF_FRAME      = TEME
TIME_SYSTEM    = UTC
MEAN_ELEMENT_THEORY = SGP/SGP4

EPOCH          = 2026-03-31T12:02:41.303616
MEAN_MOTION    = 15.80870410
ECCENTRICITY   = .00017711
INCLINATION    = 97.2831
RA_OF_ASC_NODE = 110.8495
ARG_OF_PERICENTER = 97.1701
MEAN_ANOMALY   = 262.9768

EPHEMERIS_TYPE = 0
CLASSIFICATION_TYPE = U
NORAD_CAT_ID   = 68146
ELEMENT_SET_NO = 999
REV_AT_EPOCH   = 285
BSTAR          = .13781051E-2
MEAN_MOTION_DOT = .272936E-2
MEAN_MOTION_DDOT = 0

CCSDS_OMM_VERS = 2.0
CREATION_DATE  = 
ORIGINATOR     = 

OBJECT_NAME    = STARLINK-37055
OBJECT_ID      = 2026-049F
CENTER_NAME    = EARTH
REF_FRAME      = TEME
TIME_SYSTEM    = UTC
MEAN_ELEMENT_THEORY = SGP/SGP4

EPOCH          = 2026-03-31T12:04:50.913120
MEAN_MOTION    = 15.80857168
ECCENTRICITY   = .00010931
INCLINATION    = 97.2829
RA_OF_ASC_NODE = 110.8467
ARG_OF_PERICENTER = 102.3570
MEAN_ANOMALY   = 257.7821

EPHEMERIS_TYPE = 0
CLASSIFICATION_TYPE = U
NORAD_CAT_ID   = 68147
ELEMENT_SET_NO = 999
REV_AT_EPOCH   = 285
BSTAR          = .10436001E-2
MEAN_MOTION_DOT = .204906E-2
MEAN_MOTION_DDOT = 0

CCSDS_OMM_VERS = 2.0
CREATION_DATE  = 
ORIGINATOR     = 

OBJECT_NAME    = STARLINK-36981
OBJECT_ID      = 2026-049G
CENTER_NAME    = EARTH
REF_FRAME      = TEME
TIME_SYSTEM    = UTC
MEAN_ELEMENT_THEORY = SGP/SGP4

EPOCH          = 2026-03-31T12:00:31.313952
MEAN_MOTION    = 15.80853846
ECCENTRICITY   = .00012935
INCLINATION    = 97.2834
RA_OF_ASC_NODE = 110.8509
ARG_OF_PERICENTER = 80.9236
MEAN_ANOMALY   = 279.2179

EPHEMERIS_TYPE = 0
CLASSIFICATION_TYPE = U
NORAD_CAT_ID   = 68148
ELEMENT_SET_NO = 999
REV_AT_EPOCH   = 285
BSTAR          = .11811083E-2
MEAN_MOTION_DOT = .232634E-2
MEAN_MOTION_DDOT = 0

