GUOWANG GROUP 20 OBJECT*
1 68137U 26047J   26088.24973303 -.00000122  00000+0  19245-4 0  9999
2 68137  50.0061 350.8887 0000982 211.4979 148.5862 13.93924120  2314
CZ-8A R/B               
1 68138U 26047K   26090.62279375 -.00000107  00000+0  25129-4 0  9994
2 68138  49.9536 339.9796 0044755 213.6301 146.1764 14.12232393  2653
SHIYAN-30 03            
1 68139U 26048A   26090.45737155  .00003645  00000+0  35764-3 0  9996
2 68139  35.0016  13.6117 0002848  22.3389 337.7439 14.91743618  2756
SHIYAN-30 04            
1 68140U 26048B   26090.45806414  .00003502  00000+0  34365-3 0  9991
2 68140  34.9930  13.6116 0001353  18.4637 341.6117 14.91751464  2757
CZ-2D R/B               
1 68141U 26048C   26090.47973432  .00002381  00000+0  21276-3 0  9990
2 68141  35.1311  13.1939 0015328 158.1770 201.9594 14.95574643  2763
STARLINK-36604          
1 68142U 26049A   26090.58335648 -.00445508  00000+0 -31066-2 0  9996
2 68142  97.2836 110.9235 0001137  93.6359 342.3774 15.75468192  4154
STARLINK-36995          
1 68143U 26049B   26090.50412253  .00199485  00000+0  10177-2 0  9995
2 68143  97.2832 110.8461 0001381  80.6438 279.4986 15.80834052  2854
STARLINK-37020          
1 68144U 26049C   26090.50261591  .00224396  00000+0  11401-2 0  9994
2 68144  97.2830 110.8484 0000893  92.8459 267.2911 15.80859262  2856
STARLINK-36244          
1 68145U 26049D   26090.58335648  .00020000  00000+0  13456-3 0  9997
2 68145  97.2846 110.9012 0001528  93.1958 290.9159 15.75202877  4156
STARLINK-36980          
1 68146U 26049E   26090.50186694  .00272936  00000+0  13781-2 0  9992
2 68146  97.2831 110.8495 0001771  97.1701 262.9768 15.80870410  2855
STARLINK-37055          
1 68147U 26049F   26090.50336705  .00204906  00000+0  10436-2 0  9999
2 68147  97.2829 110.8467 0001093 102.3570 257.7821 15.80857168  2859
STARLINK-36981          
1 68148U 26049G   26090.50036243  .00232634  00000+0  11811-2 0  9991
2 68148  97.2834 110.8509 0001293  80.9236 279.2179 15.80853846  2859
